{
  "type": "FeatureCollection",
  "features": [
    {
      "type": "Feature",
      "properties": {
        "norad_id": 27954,
        "name": "GALAXY 13 (HORIZONS-1)",
        "group": "intelsat",
        "lat": 0.15499513387038955,
        "lon": -104.28548538117252,
        "alt_km": 35777.812550254355,
        "timestamp": "2025-12-10T21:43:21.754062+00:00",
        "meta_object_name": "GALAXY 13 (HORIZONS-1)",
        "meta_object_id": "2003-044A",
        "meta_epoch": "2025-12-10T11:00:23.835744",
        "meta_mean_motion": 1.00270524,
        "meta_eccentricity": 0.00020288,
        "meta_inclination": 0.9296,
        "meta_ra_of_asc_node": 86.5003,
        "meta_arg_of_pericenter": 164.0767,
        "meta_mean_anomaly": 203.9566,
        "meta_ephemeris_type": 0,
        "meta_classification_type": "U",
        "meta_norad_cat_id": 27954,
        "meta_element_set_no": 999,
        "meta_rev_at_epoch": 4468,
        "meta_bstar": 0,
        "meta_mean_motion_dot": 1.37e-06,
        "meta_mean_motion_ddot": 0,
        "tle_line1": "1 27954U 03044A   25344.45860921  .00000137  00000+0  00000+0 0  9990",
        "tle_line2": "2 27954   0.9296  86.5003 0002028 164.0767 203.9566  1.00270524 44684"
      },
      "geometry": {
        "type": "Point",
        "coordinates": [
          -104.28548538117252,
          0.15499513387038955
        ]
      }
    },
    {
      "type": "Feature",
      "properties": {
        "norad_id": 28358,
        "name": "INTELSAT 10-02",
        "group": "intelsat",
        "lat": 0.0039554105610781305,
        "lon": 44.8158341726731,
        "alt_km": 35790.50752066813,
        "timestamp": "2025-12-10T21:43:21.754075+00:00",
        "meta_object_name": "INTELSAT 10-02",
        "meta_object_id": "2004-022A",
        "meta_epoch": "2025-12-09T23:46:38.709984",
        "meta_mean_motion": 1.00289796,
        "meta_eccentricity": 0.00023988,
        "meta_inclination": 0.028,
        "meta_ra_of_asc_node": 69.1558,
        "meta_arg_of_pericenter": 175.9009,
        "meta_mean_anomaly": 189.6126,
        "meta_ephemeris_type": 0,
        "meta_classification_type": "U",
        "meta_norad_cat_id": 28358,
        "meta_element_set_no": 999,
        "meta_rev_at_epoch": 7865,
        "meta_bstar": 0,
        "meta_mean_motion_dot": -4e-08,
        "meta_mean_motion_ddot": 0,
        "tle_line1": "1 28358U 04022A   25343.99072581 -.00000004  00000+0  00000+0 0  9995",
        "tle_line2": "2 28358   0.0280  69.1558 0002398 175.9009 189.6126  1.00289796 78656"
      },
      "geometry": {
        "type": "Point",
        "coordinates": [
          44.8158341726731,
          0.0039554105610781305
        ]
      }
    },
    {
      "type": "Feature",
      "properties": {
        "norad_id": 28626,
        "name": "XM-3 (RHYTHM)",
        "group": "intelsat",
        "lat": 0.1659620271189807,
        "lon": 168.7465673316673,
        "alt_km": 36165.894495402696,
        "timestamp": "2025-12-10T21:43:21.754087+00:00",
        "meta_object_name": "XM-3 (RHYTHM)",
        "meta_object_id": "2005-008A",
        "meta_epoch": "2025-12-10T14:48:38.583072",
        "meta_mean_motion": 0.98953298,
        "meta_eccentricity": 0.00014328,
        "meta_inclination": 0.1694,
        "meta_ra_of_asc_node": 81.3085,
        "meta_arg_of_pericenter": 266.8188,
        "meta_mean_anomaly": 78.0262,
        "meta_ephemeris_type": 0,
        "meta_classification_type": "U",
        "meta_norad_cat_id": 28626,
        "meta_element_set_no": 999,
        "meta_rev_at_epoch": 4072,
        "meta_bstar": 0,
        "meta_mean_motion_dot": -2.13e-06,
        "meta_mean_motion_ddot": 0,
        "tle_line1": "1 28626U 05008A   25344.61711323 -.00000213  00000+0  00000+0 0  9994",
        "tle_line2": "2 28626   0.1694  81.3085 0001432 266.8188  78.0262  0.98953298 40721"
      },
      "geometry": {
        "type": "Point",
        "coordinates": [
          168.7465673316673,
          0.1659620271189807
        ]
      }
    },
    {
      "type": "Feature",
      "properties": {
        "norad_id": 28659,
        "name": "DIRECTV 8",
        "group": "intelsat",
        "lat": -0.027172795609744203,
        "lon": -73.31656676993533,
        "alt_km": 35773.6234970891,
        "timestamp": "2025-12-10T21:43:21.754099+00:00",
        "meta_object_name": "DIRECTV 8",
        "meta_object_id": "2005-019A",
        "meta_epoch": "2025-12-10T07:31:28.465824",
        "meta_mean_motion": 1.00272201,
        "meta_eccentricity": 0.0003149,
        "meta_inclination": 0.0136,
        "meta_ra_of_asc_node": 25.1148,
        "meta_arg_of_pericenter": 239.1282,
        "meta_mean_anomaly": 168.8738,
        "meta_ephemeris_type": 0,
        "meta_classification_type": "U",
        "meta_norad_cat_id": 28659,
        "meta_element_set_no": 999,
        "meta_rev_at_epoch": 7517,
        "meta_bstar": 0,
        "meta_mean_motion_dot": 5e-08,
        "meta_mean_motion_ddot": 0,
        "tle_line1": "1 28659U 05019A   25344.31352391  .00000005  00000+0  00000+0 0  9993",
        "tle_line2": "2 28659   0.0136  25.1148 0003149 239.1282 168.8738  1.00272201 75173"
      },
      "geometry": {
        "type": "Point",
        "coordinates": [
          -73.31656676993533,
          -0.027172795609744203
        ]
      }
    },
    {
      "type": "Feature",
      "properties": {
        "norad_id": 28702,
        "name": "GALAXY 28 (G-28)",
        "group": "intelsat",
        "lat": -2.334910535078676,
        "lon": -42.97926119574914,
        "alt_km": 35780.08296316632,
        "timestamp": "2025-12-10T21:43:21.754111+00:00",
        "meta_object_name": "GALAXY 28 (G-28)",
        "meta_object_id": "2005-022A",
        "meta_epoch": "2025-12-10T07:19:38.654400",
        "meta_mean_motion": 1.0027093,
        "meta_eccentricity": 0.00027018,
        "meta_inclination": 2.8124,
        "meta_ra_of_asc_node": 81.3102,
        "meta_arg_of_pericenter": 180.8812,
        "meta_mean_anomaly": 198.3166,
        "meta_ephemeris_type": 0,
        "meta_classification_type": "U",
        "meta_norad_cat_id": 28702,
        "meta_element_set_no": 999,
        "meta_rev_at_epoch": 5008,
        "meta_bstar": 0,
        "meta_mean_motion_dot": -1.84e-06,
        "meta_mean_motion_ddot": 0,
        "tle_line1": "1 28702U 05022A   25344.30530850 -.00000184  00000+0  00000+0 0  9992",
        "tle_line2": "2 28702   2.8124  81.3102 0002701 180.8812 198.3166  1.00270930 50080"
      },
      "geometry": {
        "type": "Point",
        "coordinates": [
          -42.97926119574914,
          -2.334910535078676
        ]
      }
    },
    {
      "type": "Feature",
      "properties": {
        "norad_id": 29236,
        "name": "GALAXY 16 (G-16)",
        "group": "intelsat",
        "lat": -0.017658786631808143,
        "lon": -53.272087932314875,
        "alt_km": 35778.78922691924,
        "timestamp": "2025-12-10T21:43:21.754124+00:00",
        "meta_object_name": "GALAXY 16 (G-16)",
        "meta_object_id": "2006-023A",
        "meta_epoch": "2025-12-10T10:30:13.310784",
        "meta_mean_motion": 1.00272213,
        "meta_eccentricity": 0.00027694,
        "meta_inclination": 0.0363,
        "meta_ra_of_asc_node": 149.7861,
        "meta_arg_of_pericenter": 104.7073,
        "meta_mean_anomaly": 243.4661,
        "meta_ephemeris_type": 0,
        "meta_classification_type": "U",
        "meta_norad_cat_id": 29236,
        "meta_element_set_no": 999,
        "meta_rev_at_epoch": 7108,
        "meta_bstar": 0,
        "meta_mean_motion_dot": -1.23e-06,
        "meta_mean_motion_ddot": 0,
        "tle_line1": "1 29236U 06023A   25344.43765406 -.00000123  00000+0  00000+0 0  9991",
        "tle_line2": "2 29236   0.0363 149.7861 0002769 104.7073 243.4661  1.00272213 71088"
      },
      "geometry": {
        "type": "Point",
        "coordinates": [
          -53.272087932314875,
          -0.017658786631808143
        ]
      }
    },
    {
      "type": "Feature",
      "properties": {
        "norad_id": 29494,
        "name": "DIRECTV 9S",
        "group": "intelsat",
        "lat": -1.289448085123878,
        "lon": -55.491919816623046,
        "alt_km": 35776.53253503219,
        "timestamp": "2025-12-10T21:43:21.754138+00:00",
        "meta_object_name": "DIRECTV 9S",
        "meta_object_id": "2006-043A",
        "meta_epoch": "2025-12-10T08:50:38.677344",
        "meta_mean_motion": 1.00271482,
        "meta_eccentricity": 0.00031271,
        "meta_inclination": 1.9343,
        "meta_ra_of_asc_node": 83.234,
        "meta_arg_of_pericenter": 179.142,
        "meta_mean_anomaly": 208.4169,
        "meta_ephemeris_type": 0,
        "meta_classification_type": "U",
        "meta_norad_cat_id": 29494,
        "meta_element_set_no": 999,
        "meta_rev_at_epoch": 4949,
        "meta_bstar": 0,
        "meta_mean_motion_dot": -1.1e-06,
        "meta_mean_motion_ddot": 0,
        "tle_line1": "1 29494U 06043A   25344.36850321 -.00000110  00000+0  00000+0 0  9998",
        "tle_line2": "2 29494   1.9343  83.2340 0003127 179.1420 208.4169  1.00271482 49498"
      },
      "geometry": {
        "type": "Point",
        "coordinates": [
          -55.491919816623046,
          -1.289448085123878
        ]
      }
    }
  ]
}